{"type":"FeatureCollection","features":[{"type":"Feature","id":"fri_kulturmiljoskyltar_p.2","geometry":{"type":"Point","coordinates":[151312.6938374,6365918.48367993]},"geometry_name":"geom","properties":{"typ_av_skylt":"Fristående","klarttext":"Onsala Kyrka","skick_atgarder":null,"tidsatgang":"Inom 1 år","fri_text":"Skylten är något sned men stabil.","datum":"2019-03-15Z","id":"017","tillganglighet":"Nej","skylt_orginal":"http://karta.kungsbacka.se/linked_docs/kulturmiljoskyltar/orginal_pdf/017.pdf","skylt_bild_inv":"http://karta.kungsbacka.se/linked_docs/kulturmiljoskyltar/inv_jpeg/017a.jpg","skylt_vy":"http://karta.kungsbacka.se/linked_docs/kulturmiljoskyltar/inv_jpeg/017b.jpg"}},{"type":"Feature","id":"fri_kulturmiljoskyltar_p.3","geometry":{"type":"Point","coordinates":[150176.04,6373269.18032178]},"geometry_name":"geom","properties":{"typ_av_skylt":"Fristående","klarttext":"Vallda Kyrkby -Kyrkan","skick_atgarder":"Solblekt / Ny skylt på sikt ;Smutsig / Rengöring","tidsatgang":"Inom 2 år","fri_text":"Algpåväxt. Solblekt men inte akut.","datum":"2019-03-16Z","id":"029","tillganglighet":"Nej","skylt_orginal":"http://karta.kungsbacka.se/linked_docs/kulturmiljoskyltar/orginal_pdf/029.pdf","skylt_bild_inv":"http://karta.kungsbacka.se/linked_docs/kulturmiljoskyltar/inv_jpeg/029a.jpg","skylt_vy":"http://karta.kungsbacka.se/linked_docs/kulturmiljoskyltar/inv_jpeg/029b.jpg"}},{"type":"Feature","id":"fri_kulturmiljoskyltar_p.4","geometry":{"type":"Point","coordinates":[154344.90063672,6369815.536]},"geometry_name":"geom","properties":{"typ_av_skylt":"Fristående","klarttext":"Hunehals Borg","skick_atgarder":"Smutsig / Rengöring","tidsatgang":"Inom 4 år","fri_text":"Likadan som ID 011","datum":"2019-03-17Z","id":"037","tillganglighet":"Ja","skylt_orginal":"http://karta.kungsbacka.se/linked_docs/kulturmiljoskyltar/orginal_pdf/037.pdf","skylt_bild_inv":"http://karta.kungsbacka.se/linked_docs/kulturmiljoskyltar/inv_jpeg/037a.jpg","skylt_vy":"http://karta.kungsbacka.se/linked_docs/kulturmiljoskyltar/inv_jpeg/037b.jpg"}},{"type":"Feature","id":"fri_kulturmiljoskyltar_p.5","geometry":{"type":"Point","coordinates":[151309.928,6363177.35871973]},"geometry_name":"geom","properties":{"typ_av_skylt":"Fristående","klarttext":"Onsala Gottskär","skick_atgarder":"Solblekt / Ny skylt på sikt ;Mindre klotter / Åtgärd på sikt","tidsatgang":"Inom 2 år","fri_text":"Klottrad med spritpenna på kartbild. Solblekt men läsbar.","datum":"2019-03-16Z","id":"034","tillganglighet":"Nej","skylt_orginal":"http://karta.kungsbacka.se/linked_docs/kulturmiljoskyltar/orginal_pdf/034.pdf","skylt_bild_inv":"http://karta.kungsbacka.se/linked_docs/kulturmiljoskyltar/inv_jpeg/034a.jpg","skylt_vy":"http://karta.kungsbacka.se/linked_docs/kulturmiljoskyltar/inv_jpeg/034b.jpg"}},{"type":"Feature","id":"fri_kulturmiljoskyltar_p.6","geometry":{"type":"Point","coordinates":[151282.16431836,6365837.79328027]},"geometry_name":"geom","properties":{"typ_av_skylt":"Fristående","klarttext":"Båtmuseet","skick_atgarder":"Inga fel / Ingen åtgärd behövs","tidsatgang":"Ingen åtgärd inom överskådlig tid","fri_text":null,"datum":"2019-03-16Z","id":"035","tillganglighet":"Nej","skylt_orginal":"http://karta.kungsbacka.se/linked_docs/kulturmiljoskyltar/orginal_pdf/035.pdf","skylt_bild_inv":"http://karta.kungsbacka.se/linked_docs/kulturmiljoskyltar/inv_jpeg/035a.jpg","skylt_vy":"http://karta.kungsbacka.se/linked_docs/kulturmiljoskyltar/inv_jpeg/035b.jpg"}},{"type":"Feature","id":"fri_kulturmiljoskyltar_p.7","geometry":{"type":"Point","coordinates":[150764.99535986,6367767.58464014]},"geometry_name":"geom","properties":{"typ_av_skylt":"Fasadmonterad","klarttext":"Onsala Apelröd","skick_atgarder":null,"tidsatgang":"Ingen åtgärd inom överskådlig tid","fri_text":"Sitter på vägg. Mycket bra skick.","datum":"2019-03-15Z","id":"036","tillganglighet":"Nej","skylt_orginal":"http://karta.kungsbacka.se/linked_docs/kulturmiljoskyltar/orginal_pdf/036.pdf","skylt_bild_inv":"http://karta.kungsbacka.se/linked_docs/kulturmiljoskyltar/inv_jpeg/036a.jpg","skylt_vy":"http://karta.kungsbacka.se/linked_docs/kulturmiljoskyltar/inv_jpeg/036b.jpg"}},{"type":"Feature","id":"fri_kulturmiljoskyltar_p.8","geometry":{"type":"Point","coordinates":[168327.01619385,6374217.98160034]},"geometry_name":"geom","properties":{"typ_av_skylt":"Fristående","klarttext":"Stenindustri i Fjärsås","skick_atgarder":"Inga fel / Ingen åtgärd behövs","tidsatgang":"Ingen åtgärd inom överskådlig tid","fri_text":"Likadan skylt som ID 018. Står nära ett stenbrott.","datum":"2019-03-17Z","id":"038","tillganglighet":"Nej","skylt_orginal":"http://karta.kungsbacka.se/linked_docs/kulturmiljoskyltar/orginal_pdf/038.pdf","skylt_bild_inv":"http://karta.kungsbacka.se/linked_docs/kulturmiljoskyltar/inv_jpeg/038a.jpg","skylt_vy":"http://karta.kungsbacka.se/linked_docs/kulturmiljoskyltar/inv_jpeg/038b.jpg"}},{"type":"Feature","id":"fri_kulturmiljoskyltar_p.9","geometry":{"type":"Point","coordinates":[158044.18895508,6358024.064]},"geometry_name":"geom","properties":{"typ_av_skylt":"Fristående","klarttext":"Barnkolonierna i Åsa","skick_atgarder":"Inga fel / Ingen åtgärd behövs","tidsatgang":"Ingen åtgärd inom överskådlig tid","fri_text":"Fantastisk personal och god fika på vandrarhemmet! Likadan som ID 002.","datum":"2019-03-17Z","id":"039","tillganglighet":"Ja","skylt_orginal":"http://karta.kungsbacka.se/linked_docs/kulturmiljoskyltar/orginal_pdf/039.pdf","skylt_bild_inv":"http://karta.kungsbacka.se/linked_docs/kulturmiljoskyltar/inv_jpeg/039a.jpg","skylt_vy":"http://karta.kungsbacka.se/linked_docs/kulturmiljoskyltar/inv_jpeg/039b.jpg"}},{"type":"Feature","id":"fri_kulturmiljoskyltar_p.12","geometry":{"type":"Point","coordinates":[150065.89471973,6373770.89103809]},"geometry_name":"geom","properties":{"typ_av_skylt":"Fristående","klarttext":"Vallda Kyrkby -Gårdarna","skick_atgarder":"Smutsig / Rengöring","tidsatgang":"Inom 4 år","fri_text":"Skylten sned. Dock inget akut.","datum":"2019-03-16Z","id":"028","tillganglighet":"Ja","skylt_orginal":"http://karta.kungsbacka.se/linked_docs/kulturmiljoskyltar/orginal_pdf/028.pdf","skylt_bild_inv":"http://karta.kungsbacka.se/linked_docs/kulturmiljoskyltar/inv_jpeg/028a.jpg","skylt_vy":"http://karta.kungsbacka.se/linked_docs/kulturmiljoskyltar/inv_jpeg/028b.jpg"}},{"type":"Feature","id":"fri_kulturmiljoskyltar_p.13","geometry":{"type":"Point","coordinates":[150379.71871973,6373487.49296191]},"geometry_name":"geom","properties":{"typ_av_skylt":"Fristående","klarttext":"Vallda Kyrkby -Vallda Säteri","skick_atgarder":"Solblekt / Ny skylt på sikt ;Ostabil / Stabilisering","tidsatgang":"Inom 1 år","fri_text":"Helt lös. Skylten välter om man knuffar till den. Kraftigt solblekt.","datum":"2019-03-16Z","id":"030","tillganglighet":"Nej","skylt_orginal":"http://karta.kungsbacka.se/linked_docs/kulturmiljoskyltar/orginal_pdf/030.pdf","skylt_bild_inv":"http://karta.kungsbacka.se/linked_docs/kulturmiljoskyltar/inv_jpeg/030a.jpg","skylt_vy":"http://karta.kungsbacka.se/linked_docs/kulturmiljoskyltar/inv_jpeg/030b.jpg"}},{"type":"Feature","id":"fri_kulturmiljoskyltar_p.14","geometry":{"type":"Point","coordinates":[145812.36151562,6374332.96864014]},"geometry_name":"geom","properties":{"typ_av_skylt":"Fristående","klarttext":"Dannevalen -Vallda Sandö","skick_atgarder":null,"tidsatgang":"Inom 3 år","fri_text":"Gammal skylt men fullt läsbar. Monterad på anslagstavla i trä. Behöver bytas på sikt.","datum":"2019-03-14Z","id":"003","tillganglighet":"Nej","skylt_orginal":"http://karta.kungsbacka.se/linked_docs/kulturmiljoskyltar/orginal_pdf/003.pdf","skylt_bild_inv":"http://karta.kungsbacka.se/linked_docs/kulturmiljoskyltar/inv_jpeg/003a.jpg","skylt_vy":"http://karta.kungsbacka.se/linked_docs/kulturmiljoskyltar/inv_jpeg/003b.jpg"}},{"type":"Feature","id":"fri_kulturmiljoskyltar_p.15","geometry":null,"geometry_name":"geom","properties":{"typ_av_skylt":"Fristående","klarttext":null,"skick_atgarder":"Inga fel / Ingen åtgärd behövs ","tidsatgang":"Ingen åtgärd inom överskådlig tid ","fri_text":"Finns fler skyltar på området som tillhör Länsstyrelsen (?).","datum":"2019-03-18Z","id":"011","tillganglighet":null,"skylt_orginal":"","skylt_bild_inv":null,"skylt_vy":null}},{"type":"Feature","id":"fri_kulturmiljoskyltar_p.16","geometry":{"type":"Point","coordinates":[155409.28507959,6373379.59383997]},"geometry_name":"geom","properties":{"typ_av_skylt":"Fristående","klarttext":"Galgbacken på Hammerö Lid","skick_atgarder":"Solblekt / Ny skylt på sikt ;Smutsig / Rengöring","tidsatgang":"Inom 3 år","fri_text":"Står bredvid sten med texten \"För dem som sonat sina brott på denna plats\".","datum":"2019-03-16Z","id":"005","tillganglighet":"Nej","skylt_orginal":"http://karta.kungsbacka.se/linked_docs/kulturmiljoskyltar/orginal_pdf/005.pdf","skylt_bild_inv":"http://karta.kungsbacka.se/linked_docs/kulturmiljoskyltar/inv_jpeg/005a.jpg","skylt_vy":"http://karta.kungsbacka.se/linked_docs/kulturmiljoskyltar/inv_jpeg/005b.jpg"}},{"type":"Feature","id":"fri_kulturmiljoskyltar_p.17","geometry":{"type":"Point","coordinates":[153689.98875781,6374267.34924048]},"geometry_name":"geom","properties":{"typ_av_skylt":"Fasadmonterad","klarttext":"Kalvhultstugan","skick_atgarder":"Inga fel / Ingen åtgärd behövs","tidsatgang":"Ingen åtgärd inom överskådlig tid","fri_text":"Sitter hyfsat skyddad på stugans vägg.","datum":"2019-03-16Z","id":"012","tillganglighet":"Nej","skylt_orginal":"http://karta.kungsbacka.se/linked_docs/kulturmiljoskyltar/orginal_pdf/012.pdf","skylt_bild_inv":"http://karta.kungsbacka.se/linked_docs/kulturmiljoskyltar/inv_jpeg/012a.jpg","skylt_vy":"http://karta.kungsbacka.se/linked_docs/kulturmiljoskyltar/inv_jpeg/012b.jpg"}},{"type":"Feature","id":"fri_kulturmiljoskyltar_p.18","geometry":{"type":"Point","coordinates":[153680.00815918,6374264.53692041]},"geometry_name":"geom","properties":{"typ_av_skylt":"Fasadmonterad","klarttext":"Lindomeverkstaden","skick_atgarder":"Inga fel / Ingen åtgärd behövs","tidsatgang":"Ingen åtgärd inom överskådlig tid","fri_text":"Skylten sitter hyfsat skyddad på stugans vägg.","datum":"2019-03-16Z","id":"016","tillganglighet":"Nej","skylt_orginal":"http://karta.kungsbacka.se/linked_docs/kulturmiljoskyltar/orginal_pdf/016.pdf","skylt_bild_inv":"http://karta.kungsbacka.se/linked_docs/kulturmiljoskyltar/inv_jpeg/016a.jpg","skylt_vy":"http://karta.kungsbacka.se/linked_docs/kulturmiljoskyltar/inv_jpeg/016b.jpg"}},{"type":"Feature","id":"fri_kulturmiljoskyltar_p.19","geometry":{"type":"Point","coordinates":[153392.50527344,6373851.99135986]},"geometry_name":"geom","properties":{"typ_av_skylt":"Fristående","klarttext":"Svandammen och Skogsstugan","skick_atgarder":"Inga fel / Ingen åtgärd behövs","tidsatgang":"Ingen åtgärd inom överskådlig tid","fri_text":"Ser ut att nyligen ha rätats upp och tvättats.","datum":"2019-03-16Z","id":"019","tillganglighet":"Nej","skylt_orginal":"http://karta.kungsbacka.se/linked_docs/kulturmiljoskyltar/orginal_pdf/019.pdf","skylt_bild_inv":"http://karta.kungsbacka.se/linked_docs/kulturmiljoskyltar/inv_jpeg/019a.jpg","skylt_vy":"http://karta.kungsbacka.se/linked_docs/kulturmiljoskyltar/inv_jpeg/019b.jpg"}},{"type":"Feature","id":"fri_kulturmiljoskyltar_p.20","geometry":{"type":"Point","coordinates":[155205.45263672,6375548.26216089]},"geometry_name":"geom","properties":{"typ_av_skylt":"Fristående","klarttext":"Tölö -Ett religiöst centrum","skick_atgarder":"Inga fel / Ingen åtgärd behövs","tidsatgang":"Ingen åtgärd inom överskådlig tid","fri_text":"Mycket braskick!","datum":"2019-03-17Z","id":"026","tillganglighet":"Ja","skylt_orginal":"http://karta.kungsbacka.se/linked_docs/kulturmiljoskyltar/orginal_pdf/026.pdf","skylt_bild_inv":"http://karta.kungsbacka.se/linked_docs/kulturmiljoskyltar/inv_jpeg/026a.jpg","skylt_vy":"http://karta.kungsbacka.se/linked_docs/kulturmiljoskyltar/inv_jpeg/026b.jpg"}},{"type":"Feature","id":"fri_kulturmiljoskyltar_p.21","geometry":{"type":"Point","coordinates":[150287.93135986,6373413.47384082]},"geometry_name":"geom","properties":{"typ_av_skylt":"Fristående","klarttext":"Vallda Kyrkby -Gustafsberg","skick_atgarder":"Solblekt / Ny skylt på sikt ;Mindre skador / Ny skylt på sikt ;Smutsig / Rengöring ;Ostabil / Stabilisering","tidsatgang":"Inom 1 år","fri_text":"Skyltens fundament helt löst. Kan välta. Klarar några år till med rengöring.","datum":"2019-03-16Z","id":"027","tillganglighet":"Nej","skylt_orginal":"http://karta.kungsbacka.se/linked_docs/kulturmiljoskyltar/orginal_pdf/027.pdf","skylt_bild_inv":"http://karta.kungsbacka.se/linked_docs/kulturmiljoskyltar/inv_jpeg/027a.jpg","skylt_vy":"http://karta.kungsbacka.se/linked_docs/kulturmiljoskyltar/inv_jpeg/027b.jpg"}},{"type":"Feature","id":"fri_kulturmiljoskyltar_p.22","geometry":{"type":"Point","coordinates":[145745.15619385,6376641.24160034]},"geometry_name":"geom","properties":{"typ_av_skylt":"Fristående","klarttext":"Särö Kommunikation","skick_atgarder":"Inga fel / Ingen åtgärd behövs","tidsatgang":"Ingen åtgärd inom överskådlig tid","fri_text":"Bra skick. Nyligen tvättad?","datum":"2019-03-16Z","id":"022","tillganglighet":"Ja","skylt_orginal":"http://karta.kungsbacka.se/linked_docs/kulturmiljoskyltar/orginal_pdf/022.pdf","skylt_bild_inv":"http://karta.kungsbacka.se/linked_docs/kulturmiljoskyltar/inv_jpeg/022a.jpg","skylt_vy":"http://karta.kungsbacka.se/linked_docs/kulturmiljoskyltar/inv_jpeg/022b.jpg"}},{"type":"Feature","id":"fri_kulturmiljoskyltar_p.23","geometry":{"type":"Point","coordinates":[146768.98431836,6376556.33664014]},"geometry_name":"geom","properties":{"typ_av_skylt":"Fristående","klarttext":"Särö Naturmiljö","skick_atgarder":"Solblekt / Ny skylt på sikt","tidsatgang":"Inom 2 år","fri_text":"Skylten är sned men stabil. Håller flera år om den kan tvättas.","datum":"2019-03-14Z","id":"023","tillganglighet":"Ja","skylt_orginal":"http://karta.kungsbacka.se/linked_docs/kulturmiljoskyltar/orginal_pdf/023.pdf","skylt_bild_inv":"http://karta.kungsbacka.se/linked_docs/kulturmiljoskyltar/inv_jpeg/023a.jpg","skylt_vy":"http://karta.kungsbacka.se/linked_docs/kulturmiljoskyltar/inv_jpeg/023b.jpg"}},{"type":"Feature","id":"fri_kulturmiljoskyltar_p.24","geometry":{"type":"Point","coordinates":[146769.88031836,6376556.58584082]},"geometry_name":"geom","properties":{"typ_av_skylt":"Fristående","klarttext":"Särö Genom tiderna","skick_atgarder":"Solblekt / Ny skylt på sikt","tidsatgang":"Inom 2 år","fri_text":"Håller flera år till om den kan tvättas.","datum":"2019-03-15Z","id":"021","tillganglighet":"Ja","skylt_orginal":"http://karta.kungsbacka.se/linked_docs/kulturmiljoskyltar/orginal_pdf/021.pdf","skylt_bild_inv":"http://karta.kungsbacka.se/linked_docs/kulturmiljoskyltar/inv_jpeg/021a.jpg","skylt_vy":"http://karta.kungsbacka.se/linked_docs/kulturmiljoskyltar/inv_jpeg/021b.jpg"}},{"type":"Feature","id":"fri_kulturmiljoskyltar_p.25","geometry":{"type":"Point","coordinates":[146413.99415918,6376263.71816089]},"geometry_name":"geom","properties":{"typ_av_skylt":"Fristående","klarttext":"Särö Badortslivet","skick_atgarder":"Solblekt / Ny skylt på sikt ;Smutsig / Rengöring","tidsatgang":"Inom 1 år","fri_text":null,"datum":"2019-03-16Z","id":"020","tillganglighet":"Ja","skylt_orginal":"http://karta.kungsbacka.se/linked_docs/kulturmiljoskyltar/orginal_pdf/020.pdf","skylt_bild_inv":"http://karta.kungsbacka.se/linked_docs/kulturmiljoskyltar/inv_jpeg/020a.jpg","skylt_vy":"http://karta.kungsbacka.se/linked_docs/kulturmiljoskyltar/inv_jpeg/020b.jpg"}},{"type":"Feature","id":"fri_kulturmiljoskyltar_p.26","geometry":{"type":"Point","coordinates":[146415.13935986,6376264.11632007]},"geometry_name":"geom","properties":{"typ_av_skylt":"Fristående","klarttext":"Särö Sport, lek och spel","skick_atgarder":"Solblekt / Ny skylt på sikt","tidsatgang":"Inom 1 år","fri_text":"Kommer fungera flera år till om rengöring fungerar.","datum":"2019-03-15Z","id":"024","tillganglighet":"Ja","skylt_orginal":"http://karta.kungsbacka.se/linked_docs/kulturmiljoskyltar/orginal_pdf/024.pdf","skylt_bild_inv":"http://karta.kungsbacka.se/linked_docs/kulturmiljoskyltar/inv_jpeg/024a.jpg","skylt_vy":"http://karta.kungsbacka.se/linked_docs/kulturmiljoskyltar/inv_jpeg/024b.jpg"}},{"type":"Feature","id":"fri_kulturmiljoskyltar_p.27","geometry":{"type":"Point","coordinates":[153687.09215918,6374299.60216004]},"geometry_name":"geom","properties":{"typ_av_skylt":"Fristående","klarttext":"Kungsbackaskogen","skick_atgarder":"Smutsig / Rengöring","tidsatgang":"Inom 3 år","fri_text":"Något smutsig. Ingget akut.","datum":"2019-03-16Z","id":"015","tillganglighet":"Nej","skylt_orginal":"http://karta.kungsbacka.se/linked_docs/kulturmiljoskyltar/orginal_pdf/015.pdf","skylt_bild_inv":"http://karta.kungsbacka.se/linked_docs/kulturmiljoskyltar/inv_jpeg/015a.jpg","skylt_vy":"http://karta.kungsbacka.se/linked_docs/kulturmiljoskyltar/inv_jpeg/015b.jpg"}},{"type":"Feature","id":"fri_kulturmiljoskyltar_p.28","geometry":{"type":"Point","coordinates":[154576.04735645,6380151.84128027]},"geometry_name":"geom","properties":{"typ_av_skylt":"Fasadmonterad","klarttext":"Vattenreservoaren vid Skårsjön","skick_atgarder":"Smutsig / Rengöring","tidsatgang":"Inom 2 år","fri_text":"Sitter på väggen på vattenreservoaren.","datum":"2019-03-17Z","id":"031","tillganglighet":"Nej","skylt_orginal":"http://karta.kungsbacka.se/linked_docs/kulturmiljoskyltar/orginal_pdf/031.pdf","skylt_bild_inv":"http://karta.kungsbacka.se/linked_docs/kulturmiljoskyltar/inv_jpeg/031a.jpg","skylt_vy":"http://karta.kungsbacka.se/linked_docs/kulturmiljoskyltar/inv_jpeg/031b.jpg"}},{"type":"Feature","id":"fri_kulturmiljoskyltar_p.29","geometry":{"type":"Point","coordinates":[156675.25384082,6370513.26464014]},"geometry_name":"geom","properties":{"typ_av_skylt":"Fristående","klarttext":"Hanhals kyrkor -Nuvarande kyrka","skick_atgarder":"Inga fel / Ingen åtgärd behövs","tidsatgang":"Ingen åtgärd inom överskådlig tid","fri_text":"Bra skick! Kanske något solblekta bilder.","datum":"2019-03-17Z","id":"009","tillganglighet":"Ja","skylt_orginal":"http://karta.kungsbacka.se/linked_docs/kulturmiljoskyltar/orginal_pdf/009.pdf","skylt_bild_inv":"http://karta.kungsbacka.se/linked_docs/kulturmiljoskyltar/inv_jpeg/009a.jpg","skylt_vy":"http://karta.kungsbacka.se/linked_docs/kulturmiljoskyltar/inv_jpeg/009b.jpg"}},{"type":"Feature","id":"fri_kulturmiljoskyltar_p.30","geometry":{"type":"Point","coordinates":[157242.66907959,6371117.59816003]},"geometry_name":"geom","properties":{"typ_av_skylt":"Fristående","klarttext":"Hanhals kyrkor -Ruinen","skick_atgarder":"Solblekt / Ny skylt på sikt","tidsatgang":"Inom 4 år","fri_text":null,"datum":"2019-03-16Z","id":"010","tillganglighet":"Nej","skylt_orginal":"http://karta.kungsbacka.se/linked_docs/kulturmiljoskyltar/orginal_pdf/010.pdf","skylt_bild_inv":"http://karta.kungsbacka.se/linked_docs/kulturmiljoskyltar/inv_jpeg/010a.jpg","skylt_vy":"http://karta.kungsbacka.se/linked_docs/kulturmiljoskyltar/inv_jpeg/010b.jpg"}},{"type":"Feature","id":"fri_kulturmiljoskyltar_p.31","geometry":{"type":"Point","coordinates":[164324.93923962,6374390.08892041]},"geometry_name":"geom","properties":{"typ_av_skylt":"Fristående","klarttext":"Ålgårda kraftverk","skick_atgarder":"Smutsig / Rengöring","tidsatgang":"Inom 1 år","fri_text":"Algpåväxt.","datum":"2019-03-17Z","id":"032","tillganglighet":"Nej","skylt_orginal":"http://karta.kungsbacka.se/linked_docs/kulturmiljoskyltar/orginal_pdf/032.pdf","skylt_bild_inv":"http://karta.kungsbacka.se/linked_docs/kulturmiljoskyltar/inv_jpeg/032a.jpg","skylt_vy":"http://karta.kungsbacka.se/linked_docs/kulturmiljoskyltar/inv_jpeg/032b.jpg"}},{"type":"Feature","id":"fri_kulturmiljoskyltar_p.32","geometry":{"type":"Point","coordinates":[166925.71615918,6374057.79108045]},"geometry_name":"geom","properties":{"typ_av_skylt":"Fristående","klarttext":"Stenindustri i Fjärås","skick_atgarder":"Smutsig / Rengöring","tidsatgang":"Inom 1 år","fri_text":"Kraftigt algpåväxt.","datum":"2019-03-17Z","id":"018","tillganglighet":"Nej","skylt_orginal":"http://karta.kungsbacka.se/linked_docs/kulturmiljoskyltar/orginal_pdf/018.pdf","skylt_bild_inv":"http://karta.kungsbacka.se/linked_docs/kulturmiljoskyltar/inv_jpeg/018a.jpg","skylt_vy":"http://karta.kungsbacka.se/linked_docs/kulturmiljoskyltar/inv_jpeg/018b.jpg"}},{"type":"Feature","id":"fri_kulturmiljoskyltar_p.33","geometry":{"type":"Point","coordinates":[165969.27367822,6374008.71016004]},"geometry_name":"geom","properties":{"typ_av_skylt":"Fristående","klarttext":"Dansbanor i Oxhagen och Sundstorp","skick_atgarder":"Solblekt / Ny skylt på sikt","tidsatgang":"Ingen åtgärd inom överskådlig tid","fri_text":null,"datum":"2019-03-17Z","id":"004","tillganglighet":"Ja","skylt_orginal":"http://karta.kungsbacka.se/linked_docs/kulturmiljoskyltar/orginal_pdf/004.pdf","skylt_bild_inv":"http://karta.kungsbacka.se/linked_docs/kulturmiljoskyltar/inv_jpeg/004a.jpg","skylt_vy":"http://karta.kungsbacka.se/linked_docs/kulturmiljoskyltar/inv_jpeg/004b.jpg"}},{"type":"Feature","id":"fri_kulturmiljoskyltar_p.34","geometry":{"type":"Point","coordinates":[161363.874,6370176.02367993]},"geometry_name":"geom","properties":{"typ_av_skylt":"Fristående","klarttext":"Ångbåtstrafik på Lygnern","skick_atgarder":"Mindre klotter / Åtgärd på sikt","tidsatgang":"Inom 1 år","fri_text":"Står i vattnet. Gick inte att ta sig fram torrskodd vid inventeringen.","datum":"2019-03-16Z","id":"033","tillganglighet":"Nej","skylt_orginal":"http://karta.kungsbacka.se/linked_docs/kulturmiljoskyltar/orginal_pdf/033.pdf","skylt_bild_inv":"http://karta.kungsbacka.se/linked_docs/kulturmiljoskyltar/inv_jpeg/033a.jpg","skylt_vy":"http://karta.kungsbacka.se/linked_docs/kulturmiljoskyltar/inv_jpeg/033b.jpg"}},{"type":"Feature","id":"fri_kulturmiljoskyltar_p.35","geometry":{"type":"Point","coordinates":[157466.26783911,6358243.70524048]},"geometry_name":"geom","properties":{"typ_av_skylt":"Fristående","klarttext":"Barnkolonierna i Åsa","skick_atgarder":"Inga fel / Ingen åtgärd behövs","tidsatgang":"Ingen åtgärd inom överskådlig tid","fri_text":"Likadan skylt som vid ID 039.","datum":"2019-03-17Z","id":"002","tillganglighet":"Ja","skylt_orginal":"http://karta.kungsbacka.se/linked_docs/kulturmiljoskyltar/orginal_pdf/002.pdf","skylt_bild_inv":"http://karta.kungsbacka.se/linked_docs/kulturmiljoskyltar/inv_jpeg/002a.jpg","skylt_vy":"http://karta.kungsbacka.se/linked_docs/kulturmiljoskyltar/inv_jpeg/001b.jpg"}},{"type":"Feature","id":"fri_kulturmiljoskyltar_p.36","geometry":{"type":"Point","coordinates":[169631.06075952,6358062.76924005]},"geometry_name":"geom","properties":{"typ_av_skylt":"Fristående","klarttext":"Glamsten","skick_atgarder":"Inga fel / Ingen åtgärd behövs","tidsatgang":"Ingen åtgärd inom överskådlig tid","fri_text":"Bra skick! Står 1 km från själva \"Glamsten\".","datum":"2019-03-18Z","id":"007","tillganglighet":"Nej","skylt_orginal":"http://karta.kungsbacka.se/linked_docs/kulturmiljoskyltar/orginal_pdf/007.pdf","skylt_bild_inv":"http://karta.kungsbacka.se/linked_docs/kulturmiljoskyltar/inv_jpeg/007a.jpg","skylt_vy":"http://karta.kungsbacka.se/linked_docs/kulturmiljoskyltar/inv_jpeg/007b.jpg"}},{"type":"Feature","id":"fri_kulturmiljoskyltar_p.37","geometry":{"type":"Point","coordinates":[154713.62815918,6374482.89967993]},"geometry_name":"geom","properties":{"typ_av_skylt":"Fristående","klarttext":"Kungsbackagumman","skick_atgarder":"Solblekt / Ny skylt på sikt ;Mindre klotter / Åtgärd på sikt;Smutsig / Rengöring ;Ostabil / Stabilisering ;Klotter / Sanering","tidsatgang":"Inom 1 år","fri_text":"Skylten är lös och lutar. Behöver rätas upp och saneras.","datum":"2019-03-18Z","id":"014","tillganglighet":"Nej","skylt_orginal":"http://karta.kungsbacka.se/linked_docs/kulturmiljoskyltar/orginal_pdf/014.pdf","skylt_bild_inv":"http://karta.kungsbacka.se/linked_docs/kulturmiljoskyltar/inv_jpeg/014a.jpg","skylt_vy":"http://karta.kungsbacka.se/linked_docs/kulturmiljoskyltar/inv_jpeg/014b.jpg"}},{"type":"Feature","id":"fri_kulturmiljoskyltar_p.38","geometry":{"type":"Point","coordinates":[154477.904,6374432.12]},"geometry_name":"geom","properties":{"typ_av_skylt":"Fristående","klarttext":"Kungsbacka gamla kyrkogård","skick_atgarder":null,"tidsatgang":"Inom 2 år","fri_text":null,"datum":"2019-03-16Z","id":"006","tillganglighet":"Ja","skylt_orginal":"http://karta.kungsbacka.se/linked_docs/kulturmiljoskyltar/orginal_pdf/006.pdf","skylt_bild_inv":"http://karta.kungsbacka.se/linked_docs/kulturmiljoskyltar/inv_jpeg/006a.jpg","skylt_vy":"http://karta.kungsbacka.se/linked_docs/kulturmiljoskyltar/inv_jpeg/006b.jpg"}},{"type":"Feature","id":"fri_kulturmiljoskyltar_p.39","geometry":{"type":"Point","coordinates":[154429.072,6374062.744]},"geometry_name":"geom","properties":{"typ_av_skylt":"Fristående","klarttext":"Hamntorget","skick_atgarder":"Smutsig / Rengöring","tidsatgang":"Inom 2 år","fri_text":null,"datum":null,"id":"008","tillganglighet":"Ja","skylt_orginal":"http://karta.kungsbacka.se/linked_docs/kulturmiljoskyltar/orginal_pdf/008.pdf","skylt_bild_inv":"http://karta.kungsbacka.se/linked_docs/kulturmiljoskyltar/inv_jpeg/008a.jpg","skylt_vy":"http://karta.kungsbacka.se/linked_docs/kulturmiljoskyltar/inv_jpeg/008b.jpg"}},{"type":"Feature","id":"fri_kulturmiljoskyltar_p.40","geometry":{"type":"Point","coordinates":[154485.52,6374010.552]},"geometry_name":"geom","properties":{"typ_av_skylt":"Fristående","klarttext":"Tingshuset på Skansen & Storgatan 1","skick_atgarder":"Inga fel / Ingen åtgärd behövs","tidsatgang":"Ingen åtgärd inom överskådlig tid","fri_text":null,"datum":"2019-03-19Z","id":"025","tillganglighet":"Ja","skylt_orginal":"http://karta.kungsbacka.se/linked_docs/kulturmiljoskyltar/orginal_pdf/025.pdf","skylt_bild_inv":"http://karta.kungsbacka.se/linked_docs/kulturmiljoskyltar/inv_jpeg/025a.jpg","skylt_vy":"http://karta.kungsbacka.se/linked_docs/kulturmiljoskyltar/inv_jpeg/025b.jpg"}},{"type":"Feature","id":"fri_kulturmiljoskyltar_p.41","geometry":{"type":"Point","coordinates":[154203.728,6369916.56]},"geometry_name":"geom","properties":{"typ_av_skylt":"Fristående","klarttext":"Hunehals borg","skick_atgarder":"Inga fel / Ingen åtgärd behövs ","tidsatgang":"Ingen åtgärd inom överskådlig tid ","fri_text":"Likadan som ID 037 på andra sidan viken.","datum":"2019-03-18Z","id":"011","tillganglighet":"Ja","skylt_orginal":"http://karta.kungsbacka.se/linked_docs/kulturmiljoskyltar/orginal_pdf/011.pdf","skylt_bild_inv":"http://karta.kungsbacka.se/linked_docs/kulturmiljoskyltar/inv_jpeg/011a.jpg","skylt_vy":"http://karta.kungsbacka.se/linked_docs/kulturmiljoskyltar/inv_jpeg/011b.jpg"}},{"type":"Feature","id":"fri_kulturmiljoskyltar_p.1","geometry":{"type":"Point","coordinates":[154693.84,6374327.54]},"geometry_name":"geom","properties":{"typ_av_skylt":"Fristående","klarttext":"Badhusparken","skick_atgarder":"Smutsig / Rengöring","tidsatgang":"Inom 1 år","fri_text":"Skylten fastskruvad i lös betongsockel.","datum":"2019-03-15Z","id":"001","tillganglighet":"Nej","skylt_orginal":"http:/karta.kungsbacka.se/linked_docs/kulturmiljoskyltar/orginal_pdf/001.pdf","skylt_bild_inv":"http://karta.kungsbacka.se/linked_docs/kulturmiljoskyltar/inv_jpeg/001a.jpg","skylt_vy":"http://karta.kungsbacka.se/linked_docs/kulturmiljoskyltar/inv_jpeg/001b.jpg"}},{"type":"Feature","id":"fri_kulturmiljoskyltar_p.42","geometry":{"type":"Point","coordinates":[153965.90281303,6375591.27950147]},"geometry_name":"geom","properties":{"typ_av_skylt":null,"klarttext":"Handel och aristokrati på Varlaplatån","skick_atgarder":null,"tidsatgang":null,"fri_text":null,"datum":"2022-03-21Z","id":"042","tillganglighet":"Ja","skylt_orginal":"http:/karta.kungsbacka.se/linked_docs/kulturmiljoskyltar/orginal_pdf/042.pdf","skylt_bild_inv":null,"skylt_vy":null}},{"type":"Feature","id":"fri_kulturmiljoskyltar_p.43","geometry":{"type":"Point","coordinates":[154957.19745754,6374998.77563609]},"geometry_name":"geom","properties":{"typ_av_skylt":null,"klarttext":"Tölö vattentorn - ny typ av skylt vid bergets fot","skick_atgarder":null,"tidsatgang":null,"fri_text":null,"datum":"2022-12-08Z","id":"043","tillganglighet":null,"skylt_orginal":"http:/karta.kungsbacka.se/linked_docs/kulturmiljoskyltar/orginal_pdf/043.pdf","skylt_bild_inv":null,"skylt_vy":null}},{"type":"Feature","id":"fri_kulturmiljoskyltar_p.44","geometry":{"type":"Point","coordinates":[168980.79445825,6376685.1457918]},"geometry_name":"geom","properties":{"typ_av_skylt":"Fristående","klarttext":"SteniStenindustrin i Fjärås - Övre Ögärdet","skick_atgarder":null,"tidsatgang":null,"fri_text":null,"datum":"2023-08-17Z","id":"044","tillganglighet":null,"skylt_orginal":"http:/karta.kungsbacka.se/linked_docs/kulturmiljoskyltar/orginal_pdf/044.pdf","skylt_bild_inv":null,"skylt_vy":null}}],"totalFeatures":42,"numberMatched":42,"numberReturned":42,"timeStamp":"2026-09-07T13:53:43.529Z","crs":{"type":"name","properties":{"name":"urn:ogc:def:crs:EPSG::3007"}}}